{
  "type": "FeatureCollection",
  "name": "Metro_Santiago_Linea6",
  "features": [
    {
      "type": "Feature",
      "properties": {
        "name": "Línea 6",
        "color": "#6F2C91",
        "stroke-width": 8
      },
      "geometry": {
        "type": "LineString",
        "coordinates": [
          [-70.695532, -33.483272],
          [-70.625169, -33.466975],
          [-70.606963, -33.461881],
          
          [-70.606815, -33.438363]
        ]
      }
    }
  ]
}


