{
  "type": "FeatureCollection",
  "name": "Metro_Santiago_Linea3",
  "features": [
    {
      "type": "Feature",
      "properties": {
        "name": "Línea 3",
        "color": "#8B4513",
        "stroke-width": 8
      },
      "geometry": {
        "type": "LineString",
        "coordinates": [
          [-70.728833, -33.365889],
          [-70.720417, -33.366528],
          [-70.705857, -33.365118],
          [-70.679500, -33.385300],
          [-70.660941, -33.406583],

          [-70.65283465339338, -33.437444232150916],
          

          [-70.643772, -33.456263],
          [-70.628573, -33.452575],
          [-70.597287523521, -33.45495390812339],
          [-70.58015230420668, -33.45469630651242],
          [-70.57076732353838, -33.45344061979966], 
          [-70.55811259954937, -33.45214068738729]
        ]
      }
    }
  ]
}





















