{
  "type": "FeatureCollection",
  "features": [
    {
      "type": "Feature",
      "properties": {
        "name": "legend_bg",
        "fill": "#FFFFFF",
        "fill-opacity": 0.9,
        "stroke": "#000000",
        "stroke-width": 2
      },
      "geometry": {
        "type": "Polygon",
        "coordinates": [[
          [-70.80283834484008, -33.59159553521032],
          [-70.68283834484008, -33.59159553521032],
          [-70.68283834484008, -33.55159553521032],
          [-70.80283834484008, -33.55159553521032],
          [-70.80283834484008, -33.59159553521032]
        ]]
      }
    }
  ]
}
